PELICAN-1               
1 58296U 23174AS  26191.21846570  .00006951  00000+0  54185-4 0  9996
2 58296  97.4009 293.0009 0002521 190.7359 169.3851 15.72060428149785
PELICAN-2               
1 62631U 25009Y   26193.76565818 -.00000011  00000+0  17036-5 0  9995
2 62631  97.2116 284.3540 0002507 124.9951 235.1531 15.40631652 83494
PELICAN-3               
1 65315U 25188A   26191.16651153  .00006031  00000+0  14836-3 0  9995
2 65315  97.1983 266.9739 0001716 106.3850 253.7585 15.40988618 48859
PELICAN-4               
1 65316U 25188B   26193.78162838  .00005140  00000+0  12803-3 0  9995
2 65316  97.1962 269.7082 0000590 115.0389 245.0919 15.40681110 49259
PELICAN-5               
1 66667U 25276B   26193.82368650  .00003850  00000+0  12604-3 0  9993
2 66667  97.4137 268.7899 0002338  14.8220 345.3090 15.32290390 34449
PELICAN-6               
1 66703U 25276AP  26193.75665506  .00025740  00000+0  85152-3 0  9996
2 66703  97.3675 268.7593 0001794  48.9970 311.1426 15.31319361 34445
PELICAN-7               
1 69017U 26100AP  26192.71348567  .00001108  00000+0  49291-4 0  9991
2 69017  97.3861  90.2153 0003206  88.2568 271.9036 15.23554236 10541
PELICAN-9               
1 69019U 26100AR  26193.67359369  .00001272  00000+0  58384-4 0  9996
2 69019  97.3739  90.9959 0001272  11.4344 348.6921 15.22206232 10688
