{"fetched_at":"2026-07-13T07:47:56.614Z","source":"https://celestrak.org/NORAD/elements/gp.php?GROUP=planet&FORMAT=JSON","constellation":"pelican","records":[{"OBJECT_NAME":"PELICAN-1","OBJECT_ID":"2023-174AS","EPOCH":"2026-07-10T05:14:35.436480","CLASSIFICATION_TYPE":"U","MEAN_MOTION":15.72060428,"ECCENTRICITY":0.0002521,"INCLINATION":97.4009,"RA_OF_ASC_NODE":293.0009,"ARG_OF_PERICENTER":190.7359,"MEAN_ANOMALY":169.3851,"EPHEMERIS_TYPE":0,"NORAD_CAT_ID":58296,"ELEMENT_SET_NO":999,"REV_AT_EPOCH":14978,"BSTAR":0.000054184842,"MEAN_MOTION_DOT":0.00006951,"MEAN_MOTION_DDOT":0},{"OBJECT_NAME":"PELICAN-2","OBJECT_ID":"2025-009Y","EPOCH":"2026-07-12T18:22:32.866752","CLASSIFICATION_TYPE":"U","MEAN_MOTION":15.40631652,"ECCENTRICITY":0.0002507,"INCLINATION":97.2116,"RA_OF_ASC_NODE":284.354,"ARG_OF_PERICENTER":124.9951,"MEAN_ANOMALY":235.1531,"EPHEMERIS_TYPE":0,"NORAD_CAT_ID":62631,"ELEMENT_SET_NO":999,"REV_AT_EPOCH":8349,"BSTAR":0.0000017036,"MEAN_MOTION_DOT":-1.1e-7,"MEAN_MOTION_DDOT":0},{"OBJECT_NAME":"PELICAN-3","OBJECT_ID":"2025-188A","EPOCH":"2026-07-10T03:59:46.596192","CLASSIFICATION_TYPE":"U","MEAN_MOTION":15.40988618,"ECCENTRICITY":0.00017162,"INCLINATION":97.1983,"RA_OF_ASC_NODE":266.9739,"ARG_OF_PERICENTER":106.385,"MEAN_ANOMALY":253.7585,"EPHEMERIS_TYPE":0,"NORAD_CAT_ID":65315,"ELEMENT_SET_NO":999,"REV_AT_EPOCH":4885,"BSTAR":0.0001483582,"MEAN_MOTION_DOT":0.00006031,"MEAN_MOTION_DDOT":0},{"OBJECT_NAME":"PELICAN-4","OBJECT_ID":"2025-188B","EPOCH":"2026-07-12T18:45:32.692032","CLASSIFICATION_TYPE":"U","MEAN_MOTION":15.4068111,"ECCENTRICITY":0.000059,"INCLINATION":97.1962,"RA_OF_ASC_NODE":269.7082,"ARG_OF_PERICENTER":115.0389,"MEAN_ANOMALY":245.0919,"EPHEMERIS_TYPE":0,"NORAD_CAT_ID":65316,"ELEMENT_SET_NO":999,"REV_AT_EPOCH":4925,"BSTAR":0.00012803,"MEAN_MOTION_DOT":0.0000514,"MEAN_MOTION_DDOT":0},{"OBJECT_NAME":"PELICAN-5","OBJECT_ID":"2025-276B","EPOCH":"2026-07-12T19:46:06.513600","CLASSIFICATION_TYPE":"U","MEAN_MOTION":15.3229039,"ECCENTRICITY":0.0002338,"INCLINATION":97.4137,"RA_OF_ASC_NODE":268.7899,"ARG_OF_PERICENTER":14.822,"MEAN_ANOMALY":345.309,"EPHEMERIS_TYPE":0,"NORAD_CAT_ID":66667,"ELEMENT_SET_NO":999,"REV_AT_EPOCH":3444,"BSTAR":0.00012604,"MEAN_MOTION_DOT":0.0000385,"MEAN_MOTION_DDOT":0},{"OBJECT_NAME":"PELICAN-6","OBJECT_ID":"2025-276AP","EPOCH":"2026-07-12T18:09:34.997184","CLASSIFICATION_TYPE":"U","MEAN_MOTION":15.31319361,"ECCENTRICITY":0.0001794,"INCLINATION":97.3675,"RA_OF_ASC_NODE":268.7593,"ARG_OF_PERICENTER":48.997,"MEAN_ANOMALY":311.1426,"EPHEMERIS_TYPE":0,"NORAD_CAT_ID":66703,"ELEMENT_SET_NO":999,"REV_AT_EPOCH":3444,"BSTAR":0.00085152,"MEAN_MOTION_DOT":0.0002574,"MEAN_MOTION_DDOT":0},{"OBJECT_NAME":"PELICAN-7","OBJECT_ID":"2026-100AP","EPOCH":"2026-07-11T17:07:25.161888","CLASSIFICATION_TYPE":"U","MEAN_MOTION":15.23554236,"ECCENTRICITY":0.0003206,"INCLINATION":97.3861,"RA_OF_ASC_NODE":90.2153,"ARG_OF_PERICENTER":88.2568,"MEAN_ANOMALY":271.9036,"EPHEMERIS_TYPE":0,"NORAD_CAT_ID":69017,"ELEMENT_SET_NO":999,"REV_AT_EPOCH":1054,"BSTAR":0.000049291,"MEAN_MOTION_DOT":0.00001108,"MEAN_MOTION_DDOT":0},{"OBJECT_NAME":"PELICAN-9","OBJECT_ID":"2026-100AR","EPOCH":"2026-07-12T16:09:58.494816","CLASSIFICATION_TYPE":"U","MEAN_MOTION":15.22206232,"ECCENTRICITY":0.0001272,"INCLINATION":97.3739,"RA_OF_ASC_NODE":90.9959,"ARG_OF_PERICENTER":11.4344,"MEAN_ANOMALY":348.6921,"EPHEMERIS_TYPE":0,"NORAD_CAT_ID":69019,"ELEMENT_SET_NO":999,"REV_AT_EPOCH":1068,"BSTAR":0.000058384,"MEAN_MOTION_DOT":0.00001272,"MEAN_MOTION_DDOT":0}]}
